37192,GLOBALSTAR M075,2010,114.08,700.0,+,52.0,Active,1,LEO,Kazakhstan,Globalstar,Commercial,Communications,Soyuz,1 37192U 10054E   24239.58894437 -.00000074  00000+0  16709-3 0  9997,2 37192  51.9977 358.5252 0000650  96.3810 277.4354 12.62263413639178,12.62263413,6.5e-05,LEO
37193,GLOBALSTAR M073,2010,114.08,700.0,+,52.0,Active,1,LEO,Kazakhstan,Globalstar,Commercial,Communications,Soyuz,1 37193U 10054F   24239.86124600 -.00000073  00000+0  16960-3 0  9995,2 37193  52.0045 271.2933 0000446 100.1600  71.1583 12.62268789640668,12.62268789,4.46e-05,LEO
37739,GLOBALSTAR M083,2011,114.08,700.0,+,51.98,Active,1,LEO,Kazakhstan,Globalstar,Commercial,Communications,Soyuz,1 37739U 11033A   24239.92264979 -.00000086  00000+0  97880-4 0  9995,2 37739  51.9835 220.2357 0000238  21.3193  10.3995 12.62263544609697,12.62263544,2.38e-05,LEO
37740,GLOBALSTAR M088,2011,114.08,700.0,+,51.97,Active,1,LEO,Kazakhstan,Globalstar,Commercial,Communications,Soyuz,1 37740U 11033B   24239.97104689 -.00000084  00000+0  11262-3 0  9990,2 37740  51.9730 125.8270 0000664  46.3621 326.0313 12.62266706605244,12.62266706,6.64e-05,LEO
37741,GLOBALSTAR M091,2011,114.08,700.0,+,52.0,Active,1,LEO,Kazakhstan,Globalstar,Commercial,Communications,Soyuz,1 37741U 11033C   24239.90561921 -.00000093  00000+0  59069-4 0  9998,2 37741  51.9992  89.0571 0000646  48.5073 324.6117 12.62266252606024,12.62266252,6.46e-05,LEO
37742,GLOBALSTAR M085,2011,114.08,700.0,+,51.99,Active,1,LEO,Kazakhstan,Globalstar,Commercial,Communications,Soyuz,1 37742U 11033D   24239.21424208 -.00000096  00000+0  44438-4 0  9996,2 37742  51.9880  42.4584 0000628  72.6916  98.5457 12.62264806606445,12.62264806,6.28e-05,LEO
37743,GLOBALSTAR M081,2011,114.08,700.0,+,52.0,Active,1,LEO,Kazakhstan,Globalstar,Commercial,Communications,Soyuz,1 37743U 11033E   24239.76035939 -.00000099  00000+0  27453-4 0  9997,2 37743  51.9972  43.4008 0000853  65.1309 308.6804 12.62268424606668,12.62268424,8.53e-05,LEO
37744,GLOBALSTAR M089,2011,114.08,700.0,+,52.0,Active,1,LEO,Kazakhstan,Globalstar,Commercial,Communications,Soyuz,1 37744U 11033F   24239.64180471 -.00000088  00000+0  90521-4 0  9991,2 37744  51.9955 358.0486 0001055  98.6071 274.6320 12.62267383607745,12.62267383,0.0001055,LEO
